HAWK-5A                 
1 52757U 22057AB  26200.41144852  .00010444  00000+0  17274-3 0  9997
2 52757  97.6638   1.3730 0002993 317.9160  42.1862 15.52416100231342
HAWK-6B                 
1 55324U 23011A   26199.98473906  .00002480  00000+0  11084-3 0  9999
2 55324  40.4978 166.5679 0004544 259.8721 100.1576 15.23174312192690
HAWK-6C                 
1 55326U 23011C   26200.24636893  .00002177  00000+0  98330-4 0  9992
2 55326  40.4967 161.8766 0005020 255.4049 104.6204 15.23174872192744
HAWK-6A                 
1 55327U 23011D   26200.57423437  .00002264  00000+0  10192-3 0  9993
2 55327  40.4979 161.5908 0004711 254.2239 105.8051 15.23176839192790
HAWK-7A                 
1 56191U 23054P   26200.60222366  .00002772  00000+0  10521-3 0  9992
2 56191  97.2653  87.1150 0001049 303.0688  57.0451 15.27658441181971
HAWK-7B                 
1 56193U 23054R   26200.47115501  .00002864  00000+0  10863-3 0  9992
2 56193  97.2680  85.2625 0000863   6.4627 353.6624 15.27656413181951
HAWK-7C                 
1 56200U 23054Y   26200.60202880  .00002752  00000+0  10446-3 0  9996
2 56200  97.2656  86.1489 0000469 325.6349  34.4860 15.27659338181977
