OBJECT_NAME,OBJECT_ID,EPOCH,MEAN_MOTION,ECCENTRICITY,INCLINATION,RA_OF_ASC_NODE,ARG_OF_PERICENTER,MEAN_ANOMALY,EPHEMERIS_TYPE,CLASSIFICATION_TYPE,NORAD_CAT_ID,ELEMENT_SET_NO,REV_AT_EPOCH,BSTAR,MEAN_MOTION_DOT,MEAN_MOTION_DDOT
HAWK-5A,2022-057AB,2026-07-19T09:52:29.152128,15.52416100,.00029932,97.6638,1.3730,317.9160,42.1862,0,U,52757,999,23134,.17273897E-3,.10444E-3,0
HAWK-6B,2023-011A,2026-07-18T23:38:01.454784,15.23174312,.0004544,40.4978,166.5679,259.8721,100.1576,0,U,55324,999,19269,.11084188E-3,.248E-4,0
HAWK-6C,2023-011C,2026-07-19T05:54:46.275552,15.23174872,.00050208,40.4967,161.8766,255.4049,104.6204,0,U,55326,999,19274,.98330492E-4,.2177E-4,0
HAWK-6A,2023-011D,2026-07-19T13:46:53.849568,15.23176839,.00047114,40.4979,161.5908,254.2239,105.8051,0,U,55327,999,19279,.10191986E-3,.2264E-4,0
HAWK-7A,2023-054P,2026-07-19T14:27:12.124224,15.27658441,.00010495,97.2653,87.1150,303.0688,57.0451,0,U,56191,999,18197,.10521211E-3,.2772E-4,0
HAWK-7B,2023-054R,2026-07-19T11:18:27.792864,15.27656413,.00008632,97.2680,85.2625,6.4627,353.6624,0,U,56193,999,18195,.10862859E-3,.2864E-4,0
HAWK-7C,2023-054Y,2026-07-19T14:26:55.288320,15.27659338,.00004691,97.2656,86.1489,325.6349,34.4860,0,U,56200,999,18197,.10446335E-3,.2752E-4,0
